{"type": "FeatureCollection", "features": [ {"type": "Feature", "properties": {"norad_id": 33917, "name": "COSMOS 2251 DEB", "group": "cosmos-2251-debris", "lat": -20.857595658852834, "lon": 103.8684832472879, "alt_km": 1155.390716129732, "timestamp": "2025-12-20T05:41:50.424304+00:00", "meta": {"OBJECT_NAME": "COSMOS 2251 DEB", "OBJECT_ID": "1993-036DW", "EPOCH": "2025-12-19T10:31:18.756192", "MEAN_MOTION": 13.69372016, "ECCENTRICITY": 0.03313, "INCLINATION": 74.1071, "RA_OF_ASC_NODE": 111.4098, "ARG_OF_PERICENTER": 210.9168, "MEAN_ANOMALY": 147.2074, "EPHEMERIS_TYPE": 0, "CLASSIFICATION_TYPE": "U", "NORAD_CAT_ID": 33917, "ELEMENT_SET_NO": 999, "REV_AT_EPOCH": 83825, "BSTAR": 0.00057573, "MEAN_MOTION_DOT": 7.13e-06, "MEAN_MOTION_DDOT": 0}, "tle": {"line1": "1 33917U 93036DW  25353.43841153  .00000713  00000+0  57573-3 0  9991", "line2": "2 33917  74.1071 111.4098 0331300 210.9168 147.2074 13.69372016838255"}}, "geometry": {"type": "Point", "coordinates": [103.8684832472879, -20.857595658852834]}}, {"type": "Feature", "properties": {"norad_id": 33920, "name": "COSMOS 2251 DEB", "group": "cosmos-2251-debris", "lat": -59.2533827524563, "lon": -104.53166664673749, "alt_km": 678.4953915973047, "timestamp": "2025-12-20T05:41:50.424314+00:00", "meta": {"OBJECT_NAME": "COSMOS 2251 DEB", "OBJECT_ID": "1993-036DZ", "EPOCH": "2025-12-19T21:45:14.607648", "MEAN_MOTION": 14.58379878, "ECCENTRICITY": 0.00379797, "INCLINATION": 74.0622, "RA_OF_ASC_NODE": 284.8074, "ARG_OF_PERICENTER": 290.404, "MEAN_ANOMALY": 69.3048, "EPHEMERIS_TYPE": 0, "CLASSIFICATION_TYPE": "U", "NORAD_CAT_ID": 33920, "ELEMENT_SET_NO": 999, "REV_AT_EPOCH": 88219, "BSTAR": 0.0010785938, "MEAN_MOTION_DOT": 5.02e-05, "MEAN_MOTION_DDOT": 0}, "tle": {"line1": "1 33920U 93036DZ  25353.90641907  .00005020  00000+0  10786-2 0  9992", "line2": "2 33920  74.0622 284.8074 0037979 290.4040  69.3048 14.58379878882195"}}, "geometry": {"type": "Point", "coordinates": [-104.53166664673749, -59.2533827524563]}}, {"type": "Feature", "properties": {"norad_id": 33922, "name": "COSMOS 2251 DEB", "group": "cosmos-2251-debris", "lat": -19.929070010818386, "lon": -40.34162749630753, "alt_km": 719.8612332440562, "timestamp": "2025-12-20T05:41:50.424325+00:00", "meta": {"OBJECT_NAME": "COSMOS 2251 DEB", "OBJECT_ID": "1993-036EB", "EPOCH": "2025-12-19T10:48:41.548896", "MEAN_MOTION": 14.49529699, "ECCENTRICITY": 0.0023184, "INCLINATION": 74.0466, "RA_OF_ASC_NODE": 135.1803, "ARG_OF_PERICENTER": 244.9711, "MEAN_ANOMALY": 171.2024, "EPHEMERIS_TYPE": 0, "CLASSIFICATION_TYPE": "U", "NORAD_CAT_ID": 33922, "ELEMENT_SET_NO": 999, "REV_AT_EPOCH": 88675, "BSTAR": 0.00034166, "MEAN_MOTION_DOT": 1.287e-05, "MEAN_MOTION_DDOT": 0}, "tle": {"line1": "1 33922U 93036EB  25353.45048089  .00001287  00000+0  34166-3 0  9996", "line2": "2 33922  74.0466 135.1803 0023184 244.9711 171.2024 14.49529699886754"}}, "geometry": {"type": "Point", "coordinates": [-40.34162749630753, -19.929070010818386]}}, {"type": "Feature", "properties": {"norad_id": 33924, "name": "COSMOS 2251 DEB", "group": "cosmos-2251-debris", "lat": -22.368715435074513, "lon": -108.66988842554237, "alt_km": 855.8624385480234, "timestamp": "2025-12-20T05:41:50.424335+00:00", "meta": {"OBJECT_NAME": "COSMOS 2251 DEB", "OBJECT_ID": "1993-036ED", "EPOCH": "2025-12-19T20:55:00.671520", "MEAN_MOTION": 13.50234105, "ECCENTRICITY": 0.04038821, "INCLINATION": 73.9135, "RA_OF_ASC_NODE": 258.7378, "ARG_OF_PERICENTER": 292.9364, "MEAN_ANOMALY": 62.96, "EPHEMERIS_TYPE": 0, "CLASSIFICATION_TYPE": "U", "NORAD_CAT_ID": 33924, "ELEMENT_SET_NO": 999, "REV_AT_EPOCH": 82835, "BSTAR": 0.0003921024, "MEAN_MOTION_DOT": 3.91e-06, "MEAN_MOTION_DDOT": 0}, "tle": {"line1": "1 33924U 93036ED  25353.87153555  .00000391  00000+0  39210-3 0  9999", "line2": "2 33924  73.9135 258.7378 0403882 292.9364  62.9600 13.50234105828354"}}, "geometry": {"type": "Point", "coordinates": [-108.66988842554237, -22.368715435074513]}}, {"type": "Feature", "properties": {"norad_id": 33928, "name": "COSMOS 2251 DEB", "group": "cosmos-2251-debris", "lat": -11.715927662417108, "lon": 35.021314666394865, "alt_km": 696.0232925084092, "timestamp": "2025-12-20T05:41:50.424345+00:00", "meta": {"OBJECT_NAME": "COSMOS 2251 DEB", "OBJECT_ID": "1993-036EH", "EPOCH": "2025-12-19T13:09:54.144576", "MEAN_MOTION": 14.47416103, "ECCENTRICITY": 0.0061806, "INCLINATION": 73.9256, "RA_OF_ASC_NODE": 39.7458, "ARG_OF_PERICENTER": 332.4415, "MEAN_ANOMALY": 27.347, "EPHEMERIS_TYPE": 0, "CLASSIFICATION_TYPE": "U", "NORAD_CAT_ID": 33928, "ELEMENT_SET_NO": 999, "REV_AT_EPOCH": 88743, "BSTAR": 0.00017694, "MEAN_MOTION_DOT": 6.35e-06, "MEAN_MOTION_DDOT": 0}, "tle": {"line1": "1 33928U 93036EH  25353.54854334  .00000635  00000+0  17694-3 0  9993", "line2": "2 33928  73.9256  39.7458 0061806 332.4415  27.3470 14.47416103887432"}}, "geometry": {"type": "Point", "coordinates": [35.021314666394865, -11.715927662417108]}}, {"type": "Feature", "properties": {"norad_id": 33932, "name": "COSMOS 2251 DEB", "group": "cosmos-2251-debris", "lat": -65.86616451636912, "lon": 161.80563892179765, "alt_km": 783.9090714968625, "timestamp": "2025-12-20T05:41:50.424356+00:00", "meta": {"OBJECT_NAME": "COSMOS 2251 DEB", "OBJECT_ID": "1993-036EM", "EPOCH": "2025-12-19T21:51:19.578528", "MEAN_MOTION": 14.38777344, "ECCENTRICITY": 0.0035696, "INCLINATION": 74.0341, "RA_OF_ASC_NODE": 302.6915, "ARG_OF_PERICENTER": 17.1173, "MEAN_ANOMALY": 343.1175, "EPHEMERIS_TYPE": 0, "CLASSIFICATION_TYPE": "U", "NORAD_CAT_ID": 33932, "ELEMENT_SET_NO": 999, "REV_AT_EPOCH": 88101, "BSTAR": 0.00033280864, "MEAN_MOTION_DOT": 1.004e-05, "MEAN_MOTION_DDOT": 0}, "tle": {"line1": "1 33932U 93036EM  25353.91064327  .00001004  00000+0  33281-3 0  9995", "line2": "2 33932  74.0341 302.6915 0035696  17.1173 343.1175 14.38777344881016"}}, "geometry": {"type": "Point", "coordinates": [161.80563892179765, -65.86616451636912]}}, {"type": "Feature", "properties": {"norad_id": 33933, "name": "COSMOS 2251 DEB", "group": "cosmos-2251-debris", "lat": -40.813360824478934, "lon": 32.211233508687506, "alt_km": 790.643698238383, "timestamp": "2025-12-20T05:41:50.424366+00:00", "meta": {"OBJECT_NAME": "COSMOS 2251 DEB", "OBJECT_ID": "1993-036EN", "EPOCH": "2025-12-19T21:31:17.122080", "MEAN_MOTION": 14.33499079, "ECCENTRICITY": 0.0070888, "INCLINATION": 74.0891, "RA_OF_ASC_NODE": 47.0926, "ARG_OF_PERICENTER": 53.354, "MEAN_ANOMALY": 307.4101, "EPHEMERIS_TYPE": 0, "CLASSIFICATION_TYPE": "U", "NORAD_CAT_ID": 33933, "ELEMENT_SET_NO": 999, "REV_AT_EPOCH": 87887, "BSTAR": 0.00018927887, "MEAN_MOTION_DOT": 5.13e-06, "MEAN_MOTION_DDOT": 0}, "tle": {"line1": "1 33933U 93036EN  25353.89672595  .00000513  00000+0  18928-3 0  9990", "line2": "2 33933  74.0891  47.0926 0070888  53.3540 307.4101 14.33499079878874"}}, "geometry": {"type": "Point", "coordinates": [32.211233508687506, -40.813360824478934]}}, {"type": "Feature", "properties": {"norad_id": 33934, "name": "COSMOS 2251 DEB", "group": "cosmos-2251-debris", "lat": 43.89464436463443, "lon": 102.27154649769815, "alt_km": 702.292927508136, "timestamp": "2025-12-20T05:41:50.424376+00:00", "meta": {"OBJECT_NAME": "COSMOS 2251 DEB", "OBJECT_ID": "1993-036EP", "EPOCH": "2025-12-19T06:26:58.416288", "MEAN_MOTION": 14.59159881, "ECCENTRICITY": 0.0015422, "INCLINATION": 74.0383, "RA_OF_ASC_NODE": 88.132, "ARG_OF_PERICENTER": 211.8788, "MEAN_ANOMALY": 148.1445, "EPHEMERIS_TYPE": 0, "CLASSIFICATION_TYPE": "U", "NORAD_CAT_ID": 33934, "ELEMENT_SET_NO": 999, "REV_AT_EPOCH": 88834, "BSTAR": 0.00060457, "MEAN_MOTION_DOT": 2.825e-05, "MEAN_MOTION_DDOT": 0}, "tle": {"line1": "1 33934U 93036EP  25353.26873167  .00002825  00000+0  60457-3 0  9992", "line2": "2 33934  74.0383  88.1320 0015422 211.8788 148.1445 14.59159881888349"}}, "geometry": {"type": "Point", "coordinates": [102.27154649769815, 43.89464436463443]}}, {"type": "Feature", "properties": {"norad_id": 33936, "name": "COSMOS 2251 DEB", "group": "cosmos-2251-debris", "lat": 5.051179932103979, "lon": 24.60641702172022, "alt_km": 713.0633816435538, "timestamp": "2025-12-20T05:41:50.424387+00:00", "meta": {"OBJECT_NAME": "COSMOS 2251 DEB", "OBJECT_ID": "1993-036ER", "EPOCH": "2025-12-19T09:56:35.697120", "MEAN_MOTION": 14.60309706, "ECCENTRICITY": 0.0027087, "INCLINATION": 74.018, "RA_OF_ASC_NODE": 24.7273, "ARG_OF_PERICENTER": 178.6674, "MEAN_ANOMALY": 181.4569, "EPHEMERIS_TYPE": 0, "CLASSIFICATION_TYPE": "U", "NORAD_CAT_ID": 33936, "ELEMENT_SET_NO": 999, "REV_AT_EPOCH": 88987, "BSTAR": 0.00043447, "MEAN_MOTION_DOT": 2.08e-05, "MEAN_MOTION_DDOT": 0}, "tle": {"line1": "1 33936U 93036ER  25353.41430205  .00002080  00000+0  43447-3 0  9996", "line2": "2 33936  74.0180  24.7273 0027087 178.6674 181.4569 14.60309706889874"}}, "geometry": {"type": "Point", "coordinates": [24.60641702172022, 5.051179932103979]}}, {"type": "Feature", "properties": {"norad_id": 33938, "name": "COSMOS 2251 DEB", "group": "cosmos-2251-debris", "lat": -33.626311141324955, "lon": 24.14686035643562, "alt_km": 735.8135243759207, "timestamp": "2025-12-20T05:41:50.424397+00:00", "meta": {"OBJECT_NAME": "COSMOS 2251 DEB", "OBJECT_ID": "1993-036ET", "EPOCH": "2025-12-19T22:36:50.099328", "MEAN_MOTION": 14.46813213, "ECCENTRICITY": 0.00168318, "INCLINATION": 74.0438, "RA_OF_ASC_NODE": 193.7288, "ARG_OF_PERICENTER": 275.2594, "MEAN_ANOMALY": 203.3416, "EPHEMERIS_TYPE": 0, "CLASSIFICATION_TYPE": "U", "NORAD_CAT_ID": 33938, "ELEMENT_SET_NO": 999, "REV_AT_EPOCH": 88504, "BSTAR": 0.00029293259, "MEAN_MOTION_DOT": 1.036e-05, "MEAN_MOTION_DDOT": 0}, "tle": {"line1": "1 33938U 93036ET  25353.94224652  .00001036  00000+0  29293-3 0  9996", "line2": "2 33938  74.0438 193.7288 0016831 275.2594 203.3416 14.46813213885042"}}, "geometry": {"type": "Point", "coordinates": [24.14686035643562, -33.626311141324955]}}]}